KUIPER-00061            
1 64521U 25134X   25308.03049670  .00004171  00000+0  57629-3 0  9994
2 64521  51.9004  63.7463 0005454 216.7949 143.2640 14.79899718 21527
KUIPER-00062            
1 64522U 25134Y   25308.05223797  .00004799  00000+0  58726-3 0  9996
2 64522  51.8949  69.9831 0006942 238.4322 121.5965 14.84744411 21457
KUIPER-00063            
1 64523U 25134Z   25308.08094044  .00004495  00000+0  61857-3 0  9993
2 64523  51.9010  73.4531 0003856 168.9377 191.1671 14.79916351 21403
KUIPER-00064            
1 64524U 25134AA  25308.07307014  .00005284  00000+0  72910-3 0  9996
2 64524  51.9025  70.7930 0005480 299.1070  60.9343 14.79489515 21445
KUIPER-00065            
1 64525U 25134AB  25307.63621056  .00004128  00000+0  56981-3 0  9999
2 64525  51.9011  77.6134 0010860 225.0464 134.9619 14.79945025 21290
KUIPER-00066            
1 64526U 25134AC  25308.04208942  .00020277  00000+0  96926-3 0  9997
2 64526  51.8869  56.8105 0002869 260.8774  99.1880 15.18982142 21634
KUIPER-00069            
1 64816U 25151A   25308.16668980 -.00985871  00000+0 -81879-1 0  9994
2 64816  51.8933 116.6683 0006589 212.5417 357.7075 15.01066865  4429
KUIPER-00070            
1 64817U 25151B   25307.57500799  .00003293  00000+0  45957-3 0  9998
2 64817  51.8965 143.2417 0010308 187.4279 172.6532 14.80043011 17741
